[{"OBJECT_NAME":"STARLINK-34008","OBJECT_ID":"2025-102R","EPOCH":"2026-03-09T12:04:55.202880","MEAN_MOTION":14.9832865,"ECCENTRICITY":0.00028087,"INCLINATION":70.0017,"RA_OF_ASC_NODE":114.9458,"ARG_OF_PERICENTER":262.2359,"MEAN_ANOMALY":97.8481,"EPHEMERIS_TYPE":0,"CLASSIFICATION_TYPE":"U","NORAD_CAT_ID":64037,"ELEMENT_SET_NO":999,"REV_AT_EPOCH":4593,"BSTAR":0.00028993972,"MEAN_MOTION_DOT":3.368e-5,"MEAN_MOTION_DDOT":0},{"OBJECT_NAME":"VELOX-I","OBJECT_ID":"2014-034E","EPOCH":"2026-03-09T23:01:40.038816","MEAN_MOTION":14.96870815,"ECCENTRICITY":0.00060607,"INCLINATION":98.2625,"RA_OF_ASC_NODE":328.3713,"ARG_OF_PERICENTER":237.6745,"MEAN_ANOMALY":122.3888,"EPHEMERIS_TYPE":0,"CLASSIFICATION_TYPE":"U","NORAD_CAT_ID":40057,"ELEMENT_SET_NO":999,"REV_AT_EPOCH":63175,"BSTAR":0.00054396772,"MEAN_MOTION_DOT":6.179e-5,"MEAN_MOTION_DDOT":0}]
